IXPE                    
1 49954U 21121A   24216.91668981  .00007161  00000+0  51015-3 0  9990
2 49954   0.2316  38.6809 0009141 268.8316 201.8674 14.98850134  5509
